0 COSMOS 2233
1 22487U 93008A   13281.44483152  .00000036  00000-0  20913-4 0  9605
2 22487 082.9484 019.6816 0039522 103.6922 023.1601 13.75655781 33024
0 COSMOS 2233
1 22487U 93008A   13282.44728302  .00000027  00000-0  11418-4 0  9616
2 22487 082.9485 018.9387 0039493 100.9856 307.5673 13.75655999 33167
0 COSMOS 2233
1 22487U 93008A   13283.77836508  .00000031  00000-0  16283-4 0  9622
2 22487 082.9486 017.9522 0039473 097.3964 059.4375 13.75656056 33342
0 COSMOS 2233
1 22487U 93008A   13286.01437714  .00000053  00000-0  38041-4 0  9640
2 22487 082.9487 016.2952 0039455 091.3598 332.7697 13.75655962 33652
0 COSMOS 2233
1 22487U 93008A   13287.39771722  .00000070  00000-0  56342-4 0  9656
2 22487 082.9486 015.2702 0039451 087.6338 343.4324 13.75655988 33844
0 COSMOS 2233
1 22487U 93008A   13288.41145589  .00000076  00000-0  61941-4 0  9664
2 22487 082.9484 014.5190 0039408 084.8872 323.7478 13.75656046 33981
0 COSMOS 2233
1 22487U 93008A   13289.44349307  .00000077  00000-0  63680-4 0  9676
2 22487 082.9482 013.7543 0039375 082.0945 034.6797 13.75656190 34125
0 COSMOS 2233
1 22487U 93008A   13290.75181856  .00000078  00000-0  64238-4 0  9687
2 22487 082.9480 012.7848 0039327 078.5419 033.8792 13.75656351 34308
0 COSMOS 2233
1 22487U 93008A   13291.77751157  .00000076  00000-0  62627-4 0  9696
2 22487 082.9478 012.0246 0039289 075.7605 073.3996 13.75656611 34442
0 COSMOS 2233
1 22487U 93008A   13292.79308863  .00000077  00000-0  63641-4 0  9701
2 22487 082.9476 011.2719 0039243 073.0134 062.8167 13.75656814 34587
0 COSMOS 2233
1 22487U 93008A   13294.15992360  .00000054  00000-0  39508-4 0  9715
2 22487 082.9476 010.2589 0039197 069.3276 351.7484 13.75656983 34774
0 COSMOS 2233
1 22487U 93008A   13295.17303413  .00000050  00000-0  35894-4 0  9724
2 22487 082.9476 009.5081 0039136 066.5609 328.9782 13.75657153 34917
